[{"OBJECT_NAME":"BLUEBON","OBJECT_ID":"2025-009CH","EPOCH":"2026-03-09T16:52:33.225312","MEAN_MOTION":15.29047254,"ECCENTRICITY":0.00011933,"INCLINATION":97.4017,"RA_OF_ASC_NODE":152.2033,"ARG_OF_PERICENTER":43.39,"MEAN_ANOMALY":316.7434,"EPHEMERIS_TYPE":0,"CLASSIFICATION_TYPE":"U","NORAD_CAT_ID":62688,"ELEMENT_SET_NO":999,"REV_AT_EPOCH":6376,"BSTAR":0.00037313027,"MEAN_MOTION_DOT":0.00010452,"MEAN_MOTION_DDOT":0},{"OBJECT_NAME":"STARLINK-35917","OBJECT_ID":"2025-263U","EPOCH":"2026-03-09T22:15:31.756896","MEAN_MOTION":15.27591879,"ECCENTRICITY":0.00013982,"INCLINATION":42.9987,"RA_OF_ASC_NODE":349.4932,"ARG_OF_PERICENTER":264.7433,"MEAN_ANOMALY":95.3259,"EPHEMERIS_TYPE":0,"CLASSIFICATION_TYPE":"U","NORAD_CAT_ID":66503,"ELEMENT_SET_NO":999,"REV_AT_EPOCH":1893,"BSTAR":0.0013425708,"MEAN_MOTION_DOT":0.00036881,"MEAN_MOTION_DDOT":0}]
